[{"OBJECT_NAME":"PAKTES 1A","OBJECT_ID":"2018-056A","EPOCH":"2026-03-10T00:00:36.622368","MEAN_MOTION":14.98554284,"ECCENTRICITY":0.00218522,"INCLINATION":98.1121,"RA_OF_ASC_NODE":221.3801,"ARG_OF_PERICENTER":79.2607,"MEAN_ANOMALY":281.1073,"EPHEMERIS_TYPE":0,"CLASSIFICATION_TYPE":"U","NORAD_CAT_ID":43529,"ELEMENT_SET_NO":999,"REV_AT_EPOCH":41706,"BSTAR":0.00036888675,"MEAN_MOTION_DOT":4.376e-5,"MEAN_MOTION_DDOT":0},{"OBJECT_NAME":"STARLINK-5551","OBJECT_ID":"2023-058AU","EPOCH":"2026-03-09T22:49:54.485184","MEAN_MOTION":15.01260319,"ECCENTRICITY":0.00020168,"INCLINATION":97.6043,"RA_OF_ASC_NODE":70.5298,"ARG_OF_PERICENTER":85.7867,"MEAN_ANOMALY":274.3588,"EPHEMERIS_TYPE":0,"CLASSIFICATION_TYPE":"U","NORAD_CAT_ID":56359,"ELEMENT_SET_NO":999,"REV_AT_EPOCH":15817,"BSTAR":-1.2085875e-5,"MEAN_MOTION_DOT":-2.14e-6,"MEAN_MOTION_DDOT":0}]
